OBJECT_NAME,OBJECT_ID,EPOCH,MEAN_MOTION,ECCENTRICITY,INCLINATION,RA_OF_ASC_NODE,ARG_OF_PERICENTER,MEAN_ANOMALY,EPHEMERIS_TYPE,CLASSIFICATION_TYPE,NORAD_CAT_ID,ELEMENT_SET_NO,REV_AT_EPOCH,BSTAR,MEAN_MOTION_DOT,MEAN_MOTION_DDOT
BEIDOU-2 G8 (C01),2019-027A,2026-06-21T13:33:39.678912,1.00269615,.0010115,1.6705,74.5245,282.4745,260.6959,0,U,44231,999,2612,0,-.249E-5,0
COSMOS 2534 (758),2019-030A,2026-06-21T09:02:16.923264,2.13102244,.0013451,64.3690,192.4752,275.1251,197.9596,0,U,44299,999,5501,0,.74E-6,0
BEIDOU-3 IGSO-2 (C39),2019-035A,2026-06-21T08:40:24.173760,1.00265382,.00393,55.2486,158.8257,216.3163,144.0827,0,U,44337,999,2571,0,-.77E-6,0
GPS BIII-2  (PRN 18),2019-056A,2026-06-19T21:07:19.603200,2.00569711,.00621448,55.6357,331.0347,197.6254,334.2547,0,U,44506,999,5012,0,-.92E-6,0
BEIDOU-3 M24 (C46),2019-061A,2026-06-21T00:01:37.066080,1.86229071,.0008377,54.3964,182.5989,358.6905,1.3314,0,U,44542,999,4586,0,.76E-6,0
BEIDOU-3 M23 (C45),2019-061B,2026-06-20T04:10:19.814880,1.86227398,.00057543,54.3949,182.5950,338.0602,98.8908,0,U,44543,999,4585,0,.66E-6,0
EUTELSAT 5 WEST B (EGNOS/PRN 121),2019-067A,2026-06-20T09:23:05.034336,1.00270225,.000311,0.0621,352.3440,96.7408,315.3001,0,U,44624,999,2446,0,-.47E-6,0
BEIDOU-3 M22 (C44),2019-078A,2026-06-20T07:17:50.498016,1.86227062,.0006301,53.9328,299.7182,50.9808,309.0727,0,U,44793,999,4470,0,-.9E-6,0
BEIDOU-3 M21 (C43),2019-078B,2026-06-18T07:06:24.552864,1.86227678,.0004064,53.9076,299.7502,49.2520,310.7784,0,U,44794,999,4467,0,-.76E-6,0
COSMOS 2544 (759),2019-088A,2026-06-18T10:29:30.688800,2.13102753,.00131277,65.5663,73.6893,258.8621,101.0278,0,U,44850,999,5074,0,-.23E-6,0
BEIDOU-3 M19 (C41),2019-090A,2026-06-21T11:50:04.710912,1.86231615,.0017633,56.5623,62.6475,298.0530,242.7330,0,U,44864,999,4431,0,-.83E-6,0
BEIDOU-3 M20 (C42),2019-090B,2026-06-21T08:44:04.143840,1.86231494,.0015435,56.5642,62.6865,312.5734,231.1952,0,U,44865,999,4429,0,-.82E-6,0
BEIDOU-3 G2 (C60),2020-017A,2026-06-21T13:09:58.702176,1.00271742,.0002144,2.8738,47.4324,33.8499,106.0376,0,U,45344,999,2330,0,-.143E-5,0
COSMOS 2545 (760),2020-018A,2026-06-21T10:44:42.252000,2.13102330,.0008538,64.3522,312.2691,229.7287,130.1903,0,U,45358,999,4875,0,-.7E-6,0
BEIDOU-3 G3 (C61),2020-040A,2026-06-21T01:25:50.406816,1.00277648,.0002606,2.4578,67.5071,323.9742,9.6886,0,U,45807,999,2210,0,-.357E-5,0
GPS BIII-3  (PRN 23),2020-041A,2026-06-19T17:21:46.956096,2.00558579,.00640019,56.6713,28.8441,204.6185,152.4669,0,U,45854,999,4408,0,-.92E-6,0
GALAXY 30 (WAAS/PRN 135),2020-056C,2026-06-20T09:28:38.667936,1.00273107,.0002284,0.0183,12.9122,75.3591,197.4940,0,U,46114,999,2132,0,.32E-6,0
COSMOS 2547 (705K),2020-075A,2026-06-20T05:30:27.070272,2.13100029,.0009338,64.5997,192.3739,239.8081,120.1435,0,U,46805,999,4397,0,.62E-6,0
GPS BIII-4  (PRN 14),2020-078A,2026-06-20T06:41:49.703136,2.00564914,.0073634,53.9792,210.6528,207.3587,167.3205,0,U,46826,999,4157,0,.28E-6,0
GPS BIII-5  (PRN 11),2021-054A,2026-06-20T00:07:00.780096,2.00568793,.00253561,55.1728,332.3454,228.5950,134.3763,0,U,48859,999,3681,0,-.94E-6,0
QZS-1R (QZSS/PRN 196),2021-096A,2026-06-19T15:10:55.566912,1.00254705,.07548004,37.4674,79.5460,271.8525,278.0167,0,U,49336,999,1703,0,-.29E-5,0
GSAT0223 (GALILEO 27),2021-116A,2026-06-20T05:07:28.769088,1.70476002,.000156,57.1598,341.5920,185.4323,351.7235,0,U,49809,999,2823,0,-.95E-6,0
GSAT0224 (GALILEO 28),2021-116B,2026-06-17T23:38:32.037792,1.70475877,.0001177,57.1613,341.6514,159.9709,202.1698,0,U,49810,999,2822,0,-.91E-6,0
COSMOS 2557 (706K),2022-075A,2026-06-20T20:42:45.531936,2.13102004,.0010286,64.2965,314.3556,273.9736,85.9018,0,U,52984,999,3079,0,-.67E-6,0
COSMOS 2559 (707K),2022-130A,2026-06-18T08:04:20.621856,2.13101593,.0012585,64.2705,314.5280,178.2040,181.7898,0,U,54031,999,2871,0,-.58E-6,0
COSMOS 2564 (761),2022-161A,2026-06-20T01:21:34.243776,2.13102033,.0012215,64.7420,192.6165,224.8634,135.0824,0,U,54377,999,2769,0,.61E-6,0
GPS BIII-6  (PRN 28),2023-009A,2026-06-19T22:41:10.908960,2.00571329,.00061771,55.1232,148.4103,317.2306,41.0383,0,U,55268,999,2529,0,.63E-6,0
BEIDOU-3 G4 (C62),2023-066A,2026-06-21T13:56:59.066880,1.00272609,.0004518,0.4811,332.6937,178.0024,108.3779,0,U,56564,999,1143,0,-.282E-5,0
NVS-01 (IRNSS-1J),2023-076A,2026-06-20T10:53:22.983072,1.00277443,.0003064,2.1573,244.1904,17.9405,299.3162,0,U,56759,999,1114,0,-.339E-5,0
COSMOS 2569 (703K),2023-114A,2026-06-21T00:10:48.011232,2.13103720,.0010518,65.3042,72.4915,296.8945,63.0344,0,U,57517,999,2234,0,-.48E-6,0
BEIDOU-3 M28 (C50),2023-207A,2026-06-21T01:23:29.908320,1.86229753,.0003138,55.7561,62.1723,350.0414,9.9905,0,U,58654,999,1691,0,-.81E-6,0
